[{"OBJECT_NAME":"DAMPE","OBJECT_ID":"2015-078A","EPOCH":"2026-03-09T23:55:00.527232","MEAN_MOTION":15.30502084,"ECCENTRICITY":0.00138005,"INCLINATION":97.4588,"RA_OF_ASC_NODE":73.9866,"ARG_OF_PERICENTER":70.6942,"MEAN_ANOMALY":289.579,"EPHEMERIS_TYPE":0,"CLASSIFICATION_TYPE":"U","NORAD_CAT_ID":41173,"ELEMENT_SET_NO":999,"REV_AT_EPOCH":56937,"BSTAR":9.1158173e-5,"MEAN_MOTION_DOT":2.617e-5,"MEAN_MOTION_DDOT":0},{"OBJECT_NAME":"STARLINK-31040","OBJECT_ID":"2024-002T","EPOCH":"2026-03-09T21:11:23.987328","MEAN_MOTION":15.30191897,"ECCENTRICITY":0.00011477,"INCLINATION":53.1598,"RA_OF_ASC_NODE":229.1187,"ARG_OF_PERICENTER":98.5284,"MEAN_ANOMALY":261.5847,"EPHEMERIS_TYPE":0,"CLASSIFICATION_TYPE":"U","NORAD_CAT_ID":58722,"ELEMENT_SET_NO":999,"REV_AT_EPOCH":12204,"BSTAR":-1.1731318e-5,"MEAN_MOTION_DOT":-7.06e-6,"MEAN_MOTION_DDOT":0}]
